{"type": "FeatureCollection", "features": [ {"type": "Feature", "properties": {"norad_id": 34014, "name": "COSMOS 2251 DEB", "group": "cosmos-2251-debris", "lat": -4.117243960270263, "lon": 90.51747478398744, "alt_km": 673.0653104889743, "timestamp": "2025-12-18T13:51:50.079383+00:00", "meta": {"OBJECT_NAME": "COSMOS 2251 DEB", "OBJECT_ID": "1993-036GZ", "EPOCH": "2025-12-18T05:34:00.226848", "MEAN_MOTION": 14.73204231, "ECCENTRICITY": 0.00372592, "INCLINATION": 74.0176, "RA_OF_ASC_NODE": 270.0095, "ARG_OF_PERICENTER": 48.1455, "MEAN_ANOMALY": 102.9706, "EPHEMERIS_TYPE": 0, "CLASSIFICATION_TYPE": "U", "NORAD_CAT_ID": 34014, "ELEMENT_SET_NO": 999, "REV_AT_EPOCH": 89384, "BSTAR": 0.0007595199, "MEAN_MOTION_DOT": 4.926e-05, "MEAN_MOTION_DDOT": 0}, "tle": {"line1": "1 34014U 93036GZ  25352.23194707  .00004926  00000+0  75952-3 0  9994", "line2": "2 34014  74.0176 270.0095 0037259  48.1455 102.9706 14.73204231893849"}}, "geometry": {"type": "Point", "coordinates": [90.51747478398744, -4.117243960270263]}}, {"type": "Feature", "properties": {"norad_id": 34015, "name": "COSMOS 2251 DEB", "group": "cosmos-2251-debris", "lat": 28.38374335515231, "lon": 157.1764620844404, "alt_km": 702.6112476074968, "timestamp": "2025-12-18T13:51:50.079394+00:00", "meta": {"OBJECT_NAME": "COSMOS 2251 DEB", "OBJECT_ID": "1993-036HA", "EPOCH": "2025-12-18T04:39:15.330816", "MEAN_MOTION": 14.60323207, "ECCENTRICITY": 0.00210015, "INCLINATION": 74.0229, "RA_OF_ASC_NODE": 149.0038, "ARG_OF_PERICENTER": 245.8215, "MEAN_ANOMALY": 287.2376, "EPHEMERIS_TYPE": 0, "CLASSIFICATION_TYPE": "U", "NORAD_CAT_ID": 34015, "ELEMENT_SET_NO": 999, "REV_AT_EPOCH": 88610, "BSTAR": 0.001287332, "MEAN_MOTION_DOT": 6.216e-05, "MEAN_MOTION_DDOT": 0}, "tle": {"line1": "1 34015U 93036HA  25352.19392744  .00006216  00000+0  12873-2 0  9997", "line2": "2 34015  74.0229 149.0038 0021001 245.8215 287.2376 14.60323207886101"}}, "geometry": {"type": "Point", "coordinates": [157.1764620844404, 28.38374335515231]}}, {"type": "Feature", "properties": {"norad_id": 34018, "name": "COSMOS 2251 DEB", "group": "cosmos-2251-debris", "lat": -49.18846469166609, "lon": 62.63427224608053, "alt_km": 1156.0716945155355, "timestamp": "2025-12-18T13:51:50.079404+00:00", "meta": {"OBJECT_NAME": "COSMOS 2251 DEB", "OBJECT_ID": "1993-036HD", "EPOCH": "2025-12-18T07:26:34.387872", "MEAN_MOTION": 13.81078414, "ECCENTRICITY": 0.02634248, "INCLINATION": 73.878, "RA_OF_ASC_NODE": 82.6563, "ARG_OF_PERICENTER": 117.4792, "MEAN_ANOMALY": 301.5108, "EPHEMERIS_TYPE": 0, "CLASSIFICATION_TYPE": "U", "NORAD_CAT_ID": 34018, "ELEMENT_SET_NO": 999, "REV_AT_EPOCH": 84734, "BSTAR": 0.00030683962, "MEAN_MOTION_DOT": 4e-06, "MEAN_MOTION_DDOT": 0}, "tle": {"line1": "1 34018U 93036HD  25352.31012023  .00000400  00000+0  30684-3 0  9993", "line2": "2 34018  73.8780  82.6563 0263424 117.4792 301.5108 13.81078414847344"}}, "geometry": {"type": "Point", "coordinates": [62.63427224608053, -49.18846469166609]}}, {"type": "Feature", "properties": {"norad_id": 34019, "name": "COSMOS 2251 DEB", "group": "cosmos-2251-debris", "lat": 69.1991215513982, "lon": 170.75393750320546, "alt_km": 791.5210778773444, "timestamp": "2025-12-18T13:51:50.079415+00:00", "meta": {"OBJECT_NAME": "COSMOS 2251 DEB", "OBJECT_ID": "1993-036HE", "EPOCH": "2025-12-18T05:18:25.047072", "MEAN_MOTION": 14.33962929, "ECCENTRICITY": 0.00625291, "INCLINATION": 73.9547, "RA_OF_ASC_NODE": 40.6597, "ARG_OF_PERICENTER": 221.0967, "MEAN_ANOMALY": 203.1031, "EPHEMERIS_TYPE": 0, "CLASSIFICATION_TYPE": "U", "NORAD_CAT_ID": 34019, "ELEMENT_SET_NO": 999, "REV_AT_EPOCH": 87599, "BSTAR": 0.00064944741, "MEAN_MOTION_DOT": 1.825e-05, "MEAN_MOTION_DDOT": 0}, "tle": {"line1": "1 34019U 93036HE  25352.22112323  .00001825  00000+0  64945-3 0  9997", "line2": "2 34019  73.9547  40.6597 0062529 221.0967 203.1031 14.33962929875992"}}, "geometry": {"type": "Point", "coordinates": [170.75393750320546, 69.1991215513982]}}, {"type": "Feature", "properties": {"norad_id": 34021, "name": "COSMOS 2251 DEB", "group": "cosmos-2251-debris", "lat": 0.8695984514558791, "lon": -61.38149884454834, "alt_km": 726.490895798478, "timestamp": "2025-12-18T13:51:50.079425+00:00", "meta": {"OBJECT_NAME": "COSMOS 2251 DEB", "OBJECT_ID": "1993-036HG", "EPOCH": "2025-12-17T19:31:17.442048", "MEAN_MOTION": 14.49966458, "ECCENTRICITY": 0.00209573, "INCLINATION": 74.0363, "RA_OF_ASC_NODE": 120.3019, "ARG_OF_PERICENTER": 263.882, "MEAN_ANOMALY": 247.5787, "EPHEMERIS_TYPE": 0, "CLASSIFICATION_TYPE": "U", "NORAD_CAT_ID": 34021, "ELEMENT_SET_NO": 999, "REV_AT_EPOCH": 88703, "BSTAR": 0.00037812531, "MEAN_MOTION_DOT": 1.44e-05, "MEAN_MOTION_DDOT": 0}, "tle": {"line1": "1 34021U 93036HG  25351.81339632  .00001440  00000+0  37813-3 0  9995", "line2": "2 34021  74.0363 120.3019 0020957 263.8820 247.5787 14.49966458887035"}}, "geometry": {"type": "Point", "coordinates": [-61.38149884454834, 0.8695984514558791]}}, {"type": "Feature", "properties": {"norad_id": 34022, "name": "COSMOS 2251 DEB", "group": "cosmos-2251-debris", "lat": 52.09690884770049, "lon": 58.49386274069436, "alt_km": 772.1307836661517, "timestamp": "2025-12-18T13:51:50.079435+00:00", "meta": {"OBJECT_NAME": "COSMOS 2251 DEB", "OBJECT_ID": "1993-036HH", "EPOCH": "2025-12-18T05:30:45.020736", "MEAN_MOTION": 14.38971756, "ECCENTRICITY": 0.0022901, "INCLINATION": 74.0541, "RA_OF_ASC_NODE": 260.6794, "ARG_OF_PERICENTER": 324.737, "MEAN_ANOMALY": 158.0765, "EPHEMERIS_TYPE": 0, "CLASSIFICATION_TYPE": "U", "NORAD_CAT_ID": 34022, "ELEMENT_SET_NO": 999, "REV_AT_EPOCH": 88274, "BSTAR": 0.00018565052, "MEAN_MOTION_DOT": 5.48e-06, "MEAN_MOTION_DDOT": 0}, "tle": {"line1": "1 34022U 93036HH  25352.22968774  .00000548  00000+0  18565-3 0  9998", "line2": "2 34022  74.0541 260.6794 0022901 324.7370 158.0765 14.38971756882740"}}, "geometry": {"type": "Point", "coordinates": [58.49386274069436, 52.09690884770049]}}, {"type": "Feature", "properties": {"norad_id": 34023, "name": "COSMOS 2251 DEB", "group": "cosmos-2251-debris", "lat": 70.05590815263447, "lon": -66.92546606340711, "alt_km": 752.2708063496684, "timestamp": "2025-12-18T13:51:50.079446+00:00", "meta": {"OBJECT_NAME": "COSMOS 2251 DEB", "OBJECT_ID": "1993-036HJ", "EPOCH": "2025-12-18T04:15:29.426688", "MEAN_MOTION": 14.40572535, "ECCENTRICITY": 0.0018678, "INCLINATION": 74.0246, "RA_OF_ASC_NODE": 241.6802, "ARG_OF_PERICENTER": 336.5206, "MEAN_ANOMALY": 186.3795, "EPHEMERIS_TYPE": 0, "CLASSIFICATION_TYPE": "U", "NORAD_CAT_ID": 34023, "ELEMENT_SET_NO": 999, "REV_AT_EPOCH": 88292, "BSTAR": 0.00024549341, "MEAN_MOTION_DOT": 7.57e-06, "MEAN_MOTION_DDOT": 0}, "tle": {"line1": "1 34023U 93036HJ  25352.17742392  .00000757  00000+0  24549-3 0  9990", "line2": "2 34023  74.0246 241.6802 0018678 336.5206 186.3795 14.40572535882929"}}, "geometry": {"type": "Point", "coordinates": [-66.92546606340711, 70.05590815263447]}}, {"type": "Feature", "properties": {"norad_id": 34024, "name": "COSMOS 2251 DEB", "group": "cosmos-2251-debris", "lat": -20.654239286062616, "lon": -60.896820126599586, "alt_km": 763.9574104438188, "timestamp": "2025-12-18T13:51:50.079456+00:00", "meta": {"OBJECT_NAME": "COSMOS 2251 DEB", "OBJECT_ID": "1993-036HK", "EPOCH": "2025-12-18T06:09:46.728576", "MEAN_MOTION": 14.35402471, "ECCENTRICITY": 0.00213005, "INCLINATION": 74.0468, "RA_OF_ASC_NODE": 305.8811, "ARG_OF_PERICENTER": 355.3866, "MEAN_ANOMALY": 125.8459, "EPHEMERIS_TYPE": 0, "CLASSIFICATION_TYPE": "U", "NORAD_CAT_ID": 34024, "ELEMENT_SET_NO": 999, "REV_AT_EPOCH": 88103, "BSTAR": 0.00015196813, "MEAN_MOTION_DOT": 4.11e-06, "MEAN_MOTION_DDOT": 0}, "tle": {"line1": "1 34024U 93036HK  25352.25679084  .00000411  00000+0  15197-3 0  9993", "line2": "2 34024  74.0468 305.8811 0021300 355.3866 125.8459 14.35402471881037"}}, "geometry": {"type": "Point", "coordinates": [-60.896820126599586, -20.654239286062616]}}, {"type": "Feature", "properties": {"norad_id": 34026, "name": "COSMOS 2251 DEB", "group": "cosmos-2251-debris", "lat": -13.097233763242508, "lon": 151.46437973002833, "alt_km": 761.8944609927112, "timestamp": "2025-12-18T13:51:50.079467+00:00", "meta": {"OBJECT_NAME": "COSMOS 2251 DEB", "OBJECT_ID": "1993-036HM", "EPOCH": "2025-12-17T16:40:17.033376", "MEAN_MOTION": 13.65315727, "ECCENTRICITY": 0.035016, "INCLINATION": 73.7668, "RA_OF_ASC_NODE": 329.0456, "ARG_OF_PERICENTER": 198.3141, "MEAN_ANOMALY": 336.8728, "EPHEMERIS_TYPE": 0, "CLASSIFICATION_TYPE": "U", "NORAD_CAT_ID": 34026, "ELEMENT_SET_NO": 999, "REV_AT_EPOCH": 83599, "BSTAR": 0.00043861076, "MEAN_MOTION_DOT": 5.19e-06, "MEAN_MOTION_DDOT": 0}, "tle": {"line1": "1 34026U 93036HM  25351.69464159  .00000519  00000+0  43861-3 0  9995", "line2": "2 34026  73.7668 329.0456 0350160 198.3141 336.8728 13.65315727835996"}}, "geometry": {"type": "Point", "coordinates": [151.46437973002833, -13.097233763242508]}}, {"type": "Feature", "properties": {"norad_id": 34028, "name": "COSMOS 2251 DEB", "group": "cosmos-2251-debris", "lat": -13.220966693693597, "lon": -25.59473171824858, "alt_km": 1429.9283351271615, "timestamp": "2025-12-18T13:51:50.079477+00:00", "meta": {"OBJECT_NAME": "COSMOS 2251 DEB", "OBJECT_ID": "1993-036HP", "EPOCH": "2025-12-18T07:15:34.570944", "MEAN_MOTION": 13.20627189, "ECCENTRICITY": 0.05435628, "INCLINATION": 73.8835, "RA_OF_ASC_NODE": 338.7217, "ARG_OF_PERICENTER": 115.6125, "MEAN_ANOMALY": 7.8943, "EPHEMERIS_TYPE": 0, "CLASSIFICATION_TYPE": "U", "NORAD_CAT_ID": 34028, "ELEMENT_SET_NO": 999, "REV_AT_EPOCH": 81081, "BSTAR": 0.00045429776, "MEAN_MOTION_DOT": 3.85e-06, "MEAN_MOTION_DDOT": 0}, "tle": {"line1": "1 34028U 93036HP  25352.30248346  .00000385  00000+0  45430-3 0  9999", "line2": "2 34028  73.8835 338.7217 0543562 115.6125   7.8943 13.20627189810818"}}, "geometry": {"type": "Point", "coordinates": [-25.59473171824858, -13.220966693693597]}}]}